start=new Date('2022-11-10T00:00:00.000Z').valueOf();
sats=[{"COUNTRY_CODE":"US","OBJECT_TYPE":"PAYLOAD","EPOCH":"2022-11-09T22:00:01.999584","SEMIMAJOR_AXIS":"6918.004","RCS_SIZE":"MEDIUM","LAUNCH_DATE":"2022-08-28","MEAN_MOTION":"15.08799598","BSTAR":"0.00265830000000","PERIOD":"95.440","SITE":"AFETR","ECCENTRICITY":"0.00016730","TLE_LINE2":"2 53626  53.2171 291.5757 0001673  50.4993 166.7844 15.08799598  1307","TLE_LINE1":"1 53626U 22104AQ  22313.91668981  .00042226  00000-0  26583-2 0  9992","DECAY_DATE":null,"MEAN_MOTION_DOT":"0.00042226","REF_FRAME":"TEME","INCLINATION":"53.2171","OBJECT_ID":"2022-104AQ","MEAN_ANOMALY":"166.7844","NORAD_CAT_ID":"53626","EPHEMERIS_TYPE":"0","MEAN_ELEMENT_THEORY":"SGP4","TIME_SYSTEM":"UTC","REV_AT_EPOCH":"130","APOAPSIS":"541.026","PERIAPSIS":"538.712","FILE":"3650001","OBJECT_NAME":"STARLINK-4554","ARG_OF_PERICENTER":"50.4993","MEAN_MOTION_DDOT":"0.0000000000000","CLASSIFICATION_TYPE":"U","ELEMENT_SET_NO":"999","RA_OF_ASC_NODE":"291.5757","CENTER_NAME":"EARTH","GP_ID":"217277496"},{"GP_ID":"217276988","CENTER_NAME":"EARTH","RA_OF_ASC_NODE":"291.6507","ELEMENT_SET_NO":"999","CLASSIFICATION_TYPE":"U","MEAN_MOTION_DDOT":"0.0000000000000","ARG_OF_PERICENTER":"51.3915","PERIAPSIS":"538.593","FILE":"3650001","OBJECT_NAME":"STARLINK-4595","APOAPSIS":"541.070","REV_AT_EPOCH":"130","TIME_SYSTEM":"UTC","MEAN_ELEMENT_THEORY":"SGP4","MEAN_ANOMALY":"125.7911","NORAD_CAT_ID":"53627","EPHEMERIS_TYPE":"0","OBJECT_ID":"2022-104AR","TLE_LINE2":"2 53627  53.2163 291.6507 0001790  51.3915 125.7911 15.08811758  1300","REF_FRAME":"TEME","TLE_LINE1":"1 53627U 22104AR  22313.91668981  .00043315  00000-0  27251-2 0  9996","DECAY_DATE":null,"MEAN_MOTION_DOT":"0.00043315","INCLINATION":"53.2163","ECCENTRICITY":"0.00017900","PERIOD":"95.439","SITE":"AFETR","LAUNCH_DATE":"2022-08-28","BSTAR":"0.00272510000000","MEAN_MOTION":"15.08811758","SEMIMAJOR_AXIS":"6917.967","RCS_SIZE":"LARGE","EPOCH":"2022-11-09T22:00:01.999584","OBJECT_TYPE":"PAYLOAD","COUNTRY_CODE":"US"},{"FILE":"3650001","PERIAPSIS":"538.725","OBJECT_NAME":"STARLINK-4600","REV_AT_EPOCH":"130","APOAPSIS":"540.918","ARG_OF_PERICENTER":"46.6745","MEAN_MOTION_DDOT":"0.0000000000000","ELEMENT_SET_NO":"999","CLASSIFICATION_TYPE":"U","GP_ID":"217277327","RA_OF_ASC_NODE":"291.4966","CENTER_NAME":"EARTH","EPOCH":"2022-11-09T22:00:01.999584","SEMIMAJOR_AXIS":"6917.957","RCS_SIZE":"LARGE","COUNTRY_CODE":"US","OBJECT_TYPE":"PAYLOAD","LAUNCH_DATE":"2022-08-28","MEAN_MOTION":"15.08815001","BSTAR":"0.00262500000000","TLE_LINE2":"2 53628  53.2169 291.4966 0001585  46.6745 210.6703 15.08815001  1302","MEAN_MOTION_DOT":"0.00041708","TLE_LINE1":"1 53628U 22104AS  22313.91668981  .00041708  00000-0  26250-2 0  9999","DECAY_DATE":null,"REF_FRAME":"TEME","INCLINATION":"53.2169","OBJECT_ID":"2022-104AS","PERIOD":"95.439","SITE":"AFETR","ECCENTRICITY":"0.00015850","TIME_SYSTEM":"UTC","MEAN_ANOMALY":"210.6703","NORAD_CAT_ID":"53628","EPHEMERIS_TYPE":"0","MEAN_ELEMENT_THEORY":"SGP4"},{"CLASSIFICATION_TYPE":"U","ELEMENT_SET_NO":"999","CENTER_NAME":"EARTH","RA_OF_ASC_NODE":"291.6124","GP_ID":"217277157","REV_AT_EPOCH":"130","APOAPSIS":"541.033","OBJECT_NAME":"STARLINK-4602","FILE":"3650001","PERIAPSIS":"538.551","ARG_OF_PERICENTER":"50.7941","MEAN_MOTION_DDOT":"0.0000000000000","SITE":"AFETR","PERIOD":"95.439","ECCENTRICITY":"0.00017940","DECAY_DATE":null,"TLE_LINE1":"1 53629U 22104AT  22313.91668981  .00003447  00000-0  23468-3 0  9997","INCLINATION":"53.2167","MEAN_MOTION_DOT":"0.00003447","REF_FRAME":"TEME","TLE_LINE2":"2 53629  53.2167 291.6124 0001794  50.7941 146.4677 15.08824705  1302","OBJECT_ID":"2022-104AT","EPHEMERIS_TYPE":"0","MEAN_ANOMALY":"146.4677","NORAD_CAT_ID":"53629","MEAN_ELEMENT_THEORY":"SGP4","TIME_SYSTEM":"UTC","COUNTRY_CODE":"US","OBJECT_TYPE":"PAYLOAD","EPOCH":"2022-11-09T22:00:01.999584","RCS_SIZE":"LARGE","SEMIMAJOR_AXIS":"6917.927","LAUNCH_DATE":"2022-08-28","MEAN_MOTION":"15.08824705","BSTAR":"0.00023468000000"},{"LAUNCH_DATE":"2022-08-28","BSTAR":"-0.02418300000000","MEAN_MOTION":"15.48453375","EPOCH":"2022-11-09T22:00:01.999584","RCS_SIZE":"LARGE","SEMIMAJOR_AXIS":"6799.387","COUNTRY_CODE":"US","OBJECT_TYPE":"PAYLOAD","TIME_SYSTEM":"UTC","EPHEMERIS_TYPE":"0","NORAD_CAT_ID":"53630","MEAN_ANOMALY":"238.9418","MEAN_ELEMENT_THEORY":"SGP4","MEAN_MOTION_DOT":"-0.01189915","TLE_LINE1":"1 53630U 22104AU  22313.91668981 -.01189915  00000-0 -24183-1 0  9990","DECAY_DATE":null,"INCLINATION":"53.2166","REF_FRAME":"TEME","TLE_LINE2":"2 53630  53.2166 284.2456 0001215  56.8073 238.9418 15.48453375  1305","OBJECT_ID":"2022-104AU","PERIOD":"92.996","SITE":"AFETR","ECCENTRICITY":"0.00012150","ARG_OF_PERICENTER":"56.8073","MEAN_MOTION_DDOT":"0.0000000000000","PERIAPSIS":"420.426","FILE":"3650001","OBJECT_NAME":"STARLINK-4598","REV_AT_EPOCH":"130","APOAPSIS":"422.078","GP_ID":"217277758","RA_OF_ASC_NODE":"284.2456","CENTER_NAME":"EARTH","ELEMENT_SET_NO":"999","CLASSIFICATION_TYPE":"U"},{"COUNTRY_CODE":"US","OBJECT_TYPE":"PAYLOAD","EPOCH":"2022-11-09T22:00:01.999584","RCS_SIZE":"LARGE","SEMIMAJOR_AXIS":"6917.849","LAUNCH_DATE":"2022-08-28","BSTAR":"-0.00183970000000","MEAN_MOTION":"15.08850330","PERIOD":"95.437","SITE":"AFETR","ECCENTRICITY":"0.00018030","DECAY_DATE":null,"TLE_LINE1":"1 53631U 22104AV  22313.91668981 -.00029456  00000-0 -18397-2 0  9994","MEAN_MOTION_DOT":"-0.00029456","INCLINATION":"53.2167","REF_FRAME":"TEME","TLE_LINE2":"2 53631  53.2167 291.5327 0001803  41.3717 195.8597 15.08850330  1309","OBJECT_ID":"2022-104AV","EPHEMERIS_TYPE":"0","MEAN_ANOMALY":"195.8597","NORAD_CAT_ID":"53631","MEAN_ELEMENT_THEORY":"SGP4","TIME_SYSTEM":"UTC","REV_AT_EPOCH":"130","APOAPSIS":"540.961","PERIAPSIS":"538.467","FILE":"3650001","OBJECT_NAME":"STARLINK-4599","ARG_OF_PERICENTER":"41.3717","MEAN_MOTION_DDOT":"0.0000000000000","CLASSIFICATION_TYPE":"U","ELEMENT_SET_NO":"999","RA_OF_ASC_NODE":"291.5327","CENTER_NAME":"EARTH","GP_ID":"217276570"},{"GP_ID":"217277588","CENTER_NAME":"EARTH","RA_OF_ASC_NODE":"284.2360","ELEMENT_SET_NO":"999","CLASSIFICATION_TYPE":"U","ARG_OF_PERICENTER":"67.6157","MEAN_MOTION_DDOT":"0.0000000000000","FILE":"3650001","PERIAPSIS":"419.511","OBJECT_NAME":"STARLINK-4606","REV_AT_EPOCH":"130","APOAPSIS":"421.060","TIME_SYSTEM":"UTC","MEAN_ANOMALY":"232.9826","NORAD_CAT_ID":"53632","EPHEMERIS_TYPE":"0","MEAN_ELEMENT_THEORY":"SGP4","TLE_LINE2":"2 53632  53.2166 284.2360 0001139  67.6157 232.9826 15.48783584  1304","MEAN_MOTION_DOT":"-0.00797001","TLE_LINE1":"1 53632U 22104AW  22313.91668981 -.00797001  00000-0 -15900-1 0  9999","DECAY_DATE":null,"INCLINATION":"53.2166","REF_FRAME":"TEME","OBJECT_ID":"2022-104AW","PERIOD":"92.976","SITE":"AFETR","ECCENTRICITY":"0.00011390","MEAN_MOTION":"15.48783584","LAUNCH_DATE":"2022-08-28","BSTAR":"-0.01590000000000","EPOCH":"2022-11-09T22:00:01.999584","SEMIMAJOR_AXIS":"6798.420","RCS_SIZE":"LARGE","COUNTRY_CODE":"US","OBJECT_TYPE":"PAYLOAD"},{"APOAPSIS":"421.178","REV_AT_EPOCH":"130","PERIAPSIS":"419.371","FILE":"3650001","OBJECT_NAME":"STARLINK-4593","MEAN_MOTION_DDOT":"0.0000000000000","ARG_OF_PERICENTER":"62.5704","CLASSIFICATION_TYPE":"U","ELEMENT_SET_NO":"999","CENTER_NAME":"EARTH","RA_OF_ASC_NODE":"284.2403","GP_ID":"217276739","OBJECT_TYPE":"PAYLOAD","COUNTRY_CODE":"US","RCS_SIZE":"LARGE","SEMIMAJOR_AXIS":"6798.410","EPOCH":"2022-11-09T22:00:01.999584","LAUNCH_DATE":"2022-08-28","BSTAR":"-0.02482200000000","MEAN_MOTION":"15.48787176","ECCENTRICITY":"0.00013290","PERIOD":"92.976","SITE":"AFETR","OBJECT_ID":"2022-104AX","TLE_LINE1":"1 53633U 22104AX  22313.91668981 -.01231734  00000-0 -24822-1 0  9990","DECAY_DATE":null,"MEAN_MOTION_DOT":"-0.01231734","INCLINATION":"53.2166","REF_FRAME":"TEME","TLE_LINE2":"2 53633  53.2166 284.2403 0001329  62.5704 235.5281 15.48787176  1301","MEAN_ELEMENT_THEORY":"SGP4","EPHEMERIS_TYPE":"0","MEAN_ANOMALY":"235.5281","NORAD_CAT_ID":"53633","TIME_SYSTEM":"UTC"},{"ARG_OF_PERICENTER":"41.6987","MEAN_MOTION_DDOT":"0.0000000000000","OBJECT_NAME":"STARLINK-4592","FILE":"3650001","PERIAPSIS":"417.166","REV_AT_EPOCH":"130","APOAPSIS":"418.942","GP_ID":"217277497","RA_OF_ASC_NODE":"284.2273","CENTER_NAME":"EARTH","ELEMENT_SET_NO":"999","CLASSIFICATION_TYPE":"U","LAUNCH_DATE":"2022-08-28","BSTAR":"-0.02008500000000","MEAN_MOTION":"15.49546382","EPOCH":"2022-11-09T22:00:01.999584","SEMIMAJOR_AXIS":"6796.189","RCS_SIZE":"LARGE","COUNTRY_CODE":"US","OBJECT_TYPE":"PAYLOAD","TIME_SYSTEM":"UTC","NORAD_CAT_ID":"53634","MEAN_ANOMALY":"262.9358","EPHEMERIS_TYPE":"0","MEAN_ELEMENT_THEORY":"SGP4","TLE_LINE2":"2 53634  53.2169 284.2273 0001307  41.6987 262.9358 15.49546382  1309","DECAY_DATE":null,"TLE_LINE1":"1 53634U 22104AY  22313.91668981 -.01025879  00000-0 -20085-1 0  9999","MEAN_MOTION_DOT":"-0.01025879","REF_FRAME":"TEME","INCLINATION":"53.2169","OBJECT_ID":"2022-104AY","SITE":"AFETR","PERIOD":"92.930","ECCENTRICITY":"0.00013070"},{"MEAN_MOTION_DDOT":"0.0000000000000","ARG_OF_PERICENTER":"52.8473","APOAPSIS":"419.479","REV_AT_EPOCH":"130","OBJECT_NAME":"STARLINK-4587","FILE":"3650001","PERIAPSIS":"417.732","RA_OF_ASC_NODE":"284.2317","CENTER_NAME":"EARTH","GP_ID":"217276989","CLASSIFICATION_TYPE":"U","ELEMENT_SET_NO":"999","LAUNCH_DATE":"2022-08-28","MEAN_MOTION":"15.49357922","BSTAR":"-0.02353600000000","OBJECT_TYPE":"PAYLOAD","COUNTRY_CODE":"US","SEMIMAJOR_AXIS":"6796.740","RCS_SIZE":"LARGE","EPOCH":"2022-11-09T22:00:01.999584","MEAN_ELEMENT_THEORY":"SGP4","MEAN_ANOMALY":"249.7748","NORAD_CAT_ID":"53635","EPHEMERIS_TYPE":"0","TIME_SYSTEM":"UTC","ECCENTRICITY":"0.00012850","PERIOD":"92.942","SITE":"AFETR","OBJECT_ID":"2022-104AZ","TLE_LINE2":"2 53635  53.2165 284.2317 0001285  52.8473 249.7748 15.49357922  1300","TLE_LINE1":"1 53635U 22104AZ  22313.91668981 -.01195236  00000-0 -23536-1 0  9999","MEAN_MOTION_DOT":"-0.01195236","DECAY_DATE":null,"INCLINATION":"53.2165","REF_FRAME":"TEME"}];
